{"type": "FeatureCollection", "features": [ {"type": "Feature", "properties": {"norad_id": 66052, "name": "HRC MONOBLOCK CAMERA", "group": "stations", "lat": 38.29819847482641, "lon": 113.27905297173565, "alt_km": 398.12980325838726, "timestamp": "2025-12-26T03:50:10.842937+00:00", "meta": {"OBJECT_NAME": "HRC MONOBLOCK CAMERA", "OBJECT_ID": "1998-067XR", "EPOCH": "2025-12-25T15:16:26.141088", "MEAN_MOTION": 15.55029528, "ECCENTRICITY": 0.0002034, "INCLINATION": 51.6301, "RA_OF_ASC_NODE": 77.1613, "ARG_OF_PERICENTER": 247.8155, "MEAN_ANOMALY": 112.262, "EPHEMERIS_TYPE": 0, "CLASSIFICATION_TYPE": "U", "NORAD_CAT_ID": 66052, "ELEMENT_SET_NO": 999, "REV_AT_EPOCH": 1084, "BSTAR": 0.00054388, "MEAN_MOTION_DOT": 0.000369, "MEAN_MOTION_DDOT": 0}, "tle": {"line1": "1 66052U 98067XR  25359.63641367  .00036900  00000+0  54388-3 0  9997", "line2": "2 66052  51.6301  77.1613 0002034 247.8155 112.2620 15.55029528 10842"}}, "geometry": {"type": "Point", "coordinates": [113.27905297173565, 38.29819847482641]}}, {"type": "Feature", "properties": {"norad_id": 66174, "name": "HTV-X1", "group": "stations", "lat": 46.186015750024424, "lon": 131.67870052493174, "alt_km": 412.1338819656812, "timestamp": "2025-12-26T03:50:10.842947+00:00", "meta": {"OBJECT_NAME": "HTV-X1", "OBJECT_ID": "2025-241A", "EPOCH": "2025-12-25T13:37:14.375136", "MEAN_MOTION": 15.49813539, "ECCENTRICITY": 0.00032241, "INCLINATION": 51.6318, "RA_OF_ASC_NODE": 78.9495, "ARG_OF_PERICENTER": 299.9641, "MEAN_ANOMALY": 60.1027, "EPHEMERIS_TYPE": 0, "CLASSIFICATION_TYPE": "U", "NORAD_CAT_ID": 66174, "ELEMENT_SET_NO": 999, "REV_AT_EPOCH": 51, "BSTAR": 0.0002559065, "MEAN_MOTION_DOT": 0.00014081, "MEAN_MOTION_DDOT": 0}, "tle": {"line1": "1 66174U 25241A   25359.56752749  .00014081  00000+0  25591-3 0  9995", "line2": "2 66174  51.6318  78.9495 0003224 299.9641  60.1027 15.49813539   513"}}, "geometry": {"type": "Point", "coordinates": [131.67870052493174, 46.186015750024424]}}, {"type": "Feature", "properties": {"norad_id": 66515, "name": "SZ-21 MODULE", "group": "stations", "lat": 31.458995540490502, "lon": -22.025295416235256, "alt_km": 372.55455957839786, "timestamp": "2025-12-26T03:50:10.842958+00:00", "meta": {"OBJECT_NAME": "SZ-21 MODULE", "OBJECT_ID": "2025-246C", "EPOCH": "2025-12-25T04:36:53.601984", "MEAN_MOTION": 15.63137537, "ECCENTRICITY": 0.0004589, "INCLINATION": 41.4767, "RA_OF_ASC_NODE": 300.0489, "ARG_OF_PERICENTER": 327.9877, "MEAN_ANOMALY": 32.0683, "EPHEMERIS_TYPE": 0, "CLASSIFICATION_TYPE": "U", "NORAD_CAT_ID": 66515, "ELEMENT_SET_NO": 999, "REV_AT_EPOCH": 639, "BSTAR": 0.00031272, "MEAN_MOTION_DOT": 0.00029146, "MEAN_MOTION_DDOT": 0}, "tle": {"line1": "1 66515U 25246C   25359.19228706  .00029146  00000+0  31272-3 0  9990", "line2": "2 66515  41.4767 300.0489 0004589 327.9877  32.0683 15.63137537  6398"}}, "geometry": {"type": "Point", "coordinates": [-22.025295416235256, 31.458995540490502]}}, {"type": "Feature", "properties": {"norad_id": 66645, "name": "SHENZHOU-22", "group": "stations", "lat": -13.075079075763039, "lon": -80.04806264654349, "alt_km": 395.1764423536142, "timestamp": "2025-12-26T03:50:10.842968+00:00", "meta": {"OBJECT_NAME": "SHENZHOU-22", "OBJECT_ID": "2025-272A", "EPOCH": "2025-12-25T12:33:15.160896", "MEAN_MOTION": 15.59679589, "ECCENTRICITY": 0.00083772, "INCLINATION": 41.4683, "RA_OF_ASC_NODE": 299.0697, "ARG_OF_PERICENTER": 143.3414, "MEAN_ANOMALY": 216.7999, "EPHEMERIS_TYPE": 0, "CLASSIFICATION_TYPE": "U", "NORAD_CAT_ID": 66645, "ELEMENT_SET_NO": 999, "REV_AT_EPOCH": 26598, "BSTAR": 0.00022529008, "MEAN_MOTION_DOT": 0.00018242, "MEAN_MOTION_DDOT": 0}, "tle": {"line1": "1 66645U 25272A   25359.52309214  .00018242  00000+0  22529-3 0  9994", "line2": "2 66645  41.4683 299.0697 0008377 143.3414 216.7999 15.59679589265989"}}, "geometry": {"type": "Point", "coordinates": [-80.04806264654349, -13.075079075763039]}}, {"type": "Feature", "properties": {"norad_id": 66664, "name": "SOYUZ-MS 28", "group": "stations", "lat": 46.1860166366314, "lon": 131.67870312137396, "alt_km": 412.13388189823127, "timestamp": "2025-12-26T03:50:10.842978+00:00", "meta": {"OBJECT_NAME": "SOYUZ-MS 28", "OBJECT_ID": "2025-275A", "EPOCH": "2025-12-25T13:37:14.375136", "MEAN_MOTION": 15.49813539, "ECCENTRICITY": 0.0003224, "INCLINATION": 51.6318, "RA_OF_ASC_NODE": 78.9495, "ARG_OF_PERICENTER": 299.9641, "MEAN_ANOMALY": 60.1027, "EPHEMERIS_TYPE": 0, "CLASSIFICATION_TYPE": "U", "NORAD_CAT_ID": 66664, "ELEMENT_SET_NO": 999, "REV_AT_EPOCH": 443, "BSTAR": 0.00025591, "MEAN_MOTION_DOT": 0.00014081, "MEAN_MOTION_DDOT": 0}, "tle": {"line1": "1 66664U 25275A   25359.56752749  .00014081  00000+0  25591-3 0  9996", "line2": "2 66664  51.6318  78.9495 0003224 299.9641  60.1027 15.49813539  4432"}}, "geometry": {"type": "Point", "coordinates": [131.67870312137396, 46.1860166366314]}}, {"type": "Feature", "properties": {"norad_id": 66906, "name": "1998-067XS", "group": "stations", "lat": 17.844031880933713, "lon": -118.94678873211552, "alt_km": 411.8274980568267, "timestamp": "2025-12-26T03:50:10.842989+00:00", "meta": {"OBJECT_NAME": "1998-067XS", "OBJECT_ID": "1998-067XS", "EPOCH": "2025-12-25T11:42:06.367680", "MEAN_MOTION": 15.51255627, "ECCENTRICITY": 0.0002728, "INCLINATION": 51.6324, "RA_OF_ASC_NODE": 79.1676, "ARG_OF_PERICENTER": 267.8022, "MEAN_ANOMALY": 92.2655, "EPHEMERIS_TYPE": 0, "CLASSIFICATION_TYPE": "U", "NORAD_CAT_ID": 66906, "ELEMENT_SET_NO": 999, "REV_AT_EPOCH": 359, "BSTAR": 0.00047654, "MEAN_MOTION_DOT": 0.00028077, "MEAN_MOTION_DDOT": 0}, "tle": {"line1": "1 66906U 98067XS  25359.48757370  .00028077  00000+0  47654-3 0  9994", "line2": "2 66906  51.6324  79.1676 0002728 267.8022  92.2655 15.51255627  3597"}}, "geometry": {"type": "Point", "coordinates": [-118.94678873211552, 17.844031880933713]}}, {"type": "Feature", "properties": {"norad_id": 66907, "name": "1998-067XT", "group": "stations", "lat": -41.17947102986538, "lon": -60.46687664529787, "alt_km": 410.88849848103473, "timestamp": "2025-12-26T03:50:10.843000+00:00", "meta": {"OBJECT_NAME": "1998-067XT", "OBJECT_ID": "1998-067XT", "EPOCH": "2025-12-24T10:39:56.166048", "MEAN_MOTION": 15.52879993, "ECCENTRICITY": 0.00038856, "INCLINATION": 51.6313, "RA_OF_ASC_NODE": 84.2012, "ARG_OF_PERICENTER": 298.2919, "MEAN_ANOMALY": 61.7678, "EPHEMERIS_TYPE": 0, "CLASSIFICATION_TYPE": "U", "NORAD_CAT_ID": 66907, "ELEMENT_SET_NO": 999, "REV_AT_EPOCH": 343, "BSTAR": 0.0010726177, "MEAN_MOTION_DOT": 0.00067981, "MEAN_MOTION_DDOT": 0}, "tle": {"line1": "1 66907U 98067XT  25358.44440007  .00067981  00000+0  10726-2 0  9992", "line2": "2 66907  51.6313  84.2012 0003885 298.2919  61.7678 15.52879993  3433"}}, "geometry": {"type": "Point", "coordinates": [-60.46687664529787, -41.17947102986538]}}, {"type": "Feature", "properties": {"norad_id": 66908, "name": "1998-067XU", "group": "stations", "lat": -44.58493251858797, "lon": -53.017004429821704, "alt_km": 410.4281634176996, "timestamp": "2025-12-26T03:50:10.843010+00:00", "meta": {"OBJECT_NAME": "1998-067XU", "OBJECT_ID": "1998-067XU", "EPOCH": "2025-12-24T10:38:25.805472", "MEAN_MOTION": 15.52977314, "ECCENTRICITY": 0.00038638, "INCLINATION": 51.6323, "RA_OF_ASC_NODE": 84.1936, "ARG_OF_PERICENTER": 296.7785, "MEAN_ANOMALY": 63.2809, "EPHEMERIS_TYPE": 0, "CLASSIFICATION_TYPE": "U", "NORAD_CAT_ID": 66908, "ELEMENT_SET_NO": 999, "REV_AT_EPOCH": 343, "BSTAR": 0.0010585814, "MEAN_MOTION_DOT": 0.00067317, "MEAN_MOTION_DDOT": 0}, "tle": {"line1": "1 66908U 98067XU  25358.44335423  .00067317  00000+0  10586-2 0  9995", "line2": "2 66908  51.6323  84.1936 0003863 296.7785  63.2809 15.52977314  3438"}}, "geometry": {"type": "Point", "coordinates": [-53.017004429821704, -44.58493251858797]}}, {"type": "Feature", "properties": {"norad_id": 66909, "name": "SILVERSAT", "group": "stations", "lat": -48.688176504885696, "lon": -40.025385204083726, "alt_km": 409.64818057697175, "timestamp": "2025-12-26T03:50:10.843020+00:00", "meta": {"OBJECT_NAME": "SILVERSAT", "OBJECT_ID": "1998-067XV", "EPOCH": "2025-12-24T12:08:54.950784", "MEAN_MOTION": 15.53202951, "ECCENTRICITY": 0.00038249, "INCLINATION": 51.631, "RA_OF_ASC_NODE": 83.8633, "ARG_OF_PERICENTER": 300.8028, "MEAN_ANOMALY": 59.2585, "EPHEMERIS_TYPE": 0, "CLASSIFICATION_TYPE": "U", "NORAD_CAT_ID": 66909, "ELEMENT_SET_NO": 999, "REV_AT_EPOCH": 344, "BSTAR": 0.0011617624, "MEAN_MOTION_DOT": 0.00074602, "MEAN_MOTION_DDOT": 0}, "tle": {"line1": "1 66909U 98067XV  25358.50619156  .00074602  00000+0  11618-2 0  9993", "line2": "2 66909  51.6310  83.8633 0003824 300.8028  59.2585 15.53202951  3445"}}, "geometry": {"type": "Point", "coordinates": [-40.025385204083726, -48.688176504885696]}}, {"type": "Feature", "properties": {"norad_id": 66910, "name": "1998-067XW", "group": "stations", "lat": -50.97192934738249, "lon": -26.59424956788721, "alt_km": 409.09290039755706, "timestamp": "2025-12-26T03:50:10.843031+00:00", "meta": {"OBJECT_NAME": "1998-067XW", "OBJECT_ID": "1998-067XW", "EPOCH": "2025-12-25T05:05:39.017760", "MEAN_MOTION": 15.53228928, "ECCENTRICITY": 0.0003837, "INCLINATION": 51.6308, "RA_OF_ASC_NODE": 80.3284, "ARG_OF_PERICENTER": 278.3824, "MEAN_ANOMALY": 81.6731, "EPHEMERIS_TYPE": 0, "CLASSIFICATION_TYPE": "U", "NORAD_CAT_ID": 66910, "ELEMENT_SET_NO": 999, "REV_AT_EPOCH": 355, "BSTAR": 0.0010169, "MEAN_MOTION_DOT": 0.00065225, "MEAN_MOTION_DDOT": 0}, "tle": {"line1": "1 66910U 98067XW  25359.21225715  .00065225  00000+0  10169-2 0  9999", "line2": "2 66910  51.6308  80.3284 0003837 278.3824  81.6731 15.53228928  3551"}}, "geometry": {"type": "Point", "coordinates": [-26.59424956788721, -50.97192934738249]}}]}